OBJECT_NAME,OBJECT_ID,EPOCH,MEAN_MOTION,ECCENTRICITY,INCLINATION,RA_OF_ASC_NODE,ARG_OF_PERICENTER,MEAN_ANOMALY,EPHEMERIS_TYPE,CLASSIFICATION_TYPE,NORAD_CAT_ID,ELEMENT_SET_NO,REV_AT_EPOCH,BSTAR,MEAN_MOTION_DOT,MEAN_MOTION_DDOT
STARLINK-6072,2023-078AR,2026-06-09T04:09:19.041984,14.98331806,.00027356,70.0002,73.6405,268.4559,91.6286,0,U,56806,999,16734,.61836426E-4,.645E-5,0
STARLINK-6073,2023-078AS,2026-06-09T04:34:13.039680,14.96543683,.0004636,70.0008,93.5805,98.5179,261.6504,0,U,56807,999,16687,-.10603043E+0,-.1113069E-1,0
STARLINK-6042,2023-078AT,2026-06-09T01:29:38.070816,14.98317064,.00032041,70.0001,44.1585,271.4424,88.6368,0,U,56808,999,16810,.12381182E-3,.1384E-4,0
STARLINK-6040,2023-078AU,2026-06-09T06:46:12.294336,14.98330301,.00033588,69.9995,113.3676,265.3857,94.6919,0,U,56809,999,16640,.27305608E-4,.233E-5,0
STARLINK-6031,2023-078AV,2026-06-09T07:10:16.148928,14.98336501,.00032543,69.9991,113.4258,263.6091,96.4697,0,U,56810,999,16640,.7296201E-4,.778E-5,0
STARLINK-6065,2023-078AX,2026-06-09T04:45:56.606976,14.98333441,.00028955,70.0002,93.6166,268.4458,91.6370,0,U,56812,999,16688,.8380119E-5,.7E-7,0
STARLINK-6056,2023-078AY,2026-06-09T06:40:26.025600,14.98329344,.00031777,69.9997,113.3535,267.1469,92.9326,0,U,56813,999,16640,.141995E-4,.76E-6,0
STARLINK-6059,2023-078AZ,2026-06-09T06:52:12.874368,14.98331474,.00030973,69.9994,113.3814,262.2309,97.8498,0,U,56814,999,16640,.41583766E-4,.403E-5,0
STARLINK-6067,2023-078BB,2026-06-09T04:27:40.791456,14.98328045,.00031877,69.9997,93.5653,264.2728,95.8068,0,U,56816,999,16688,.10483572E-3,.1158E-4,0
STARLINK-6028,2023-078BD,2026-06-09T06:40:11.559648,14.98341906,.00032194,70.0004,113.3513,271.3490,88.7300,0,U,56818,999,16709,.14666245E-3,.1658E-4,0
STARLINK-30119,2023-079A,2026-06-07T17:08:26.422944,15.27567650,.0004345,43.0564,318.8886,275.4950,84.5406,0,U,56823,999,16708,.12171871E-4,.7E-6,0
STARLINK-30120,2023-079B,2026-06-07T17:28:46.521408,15.27568700,.00008132,43.0069,318.9881,228.8934,131.1848,0,U,56824,999,16697,.19669559E-4,.279E-5,0
STARLINK-30084,2023-079C,2026-06-09T02:33:14.778720,15.27544596,.00007133,42.9983,310.4082,266.8403,93.2367,0,U,56825,999,16687,.43028998E-3,.11585E-3,0
STARLINK-30114,2023-079D,2026-06-09T03:28:42.534336,15.27585815,.00014784,43.0085,310.5047,261.9371,98.1313,0,U,56826,999,16718,-.10855992E-4,-.561E-5,0
STARLINK-30151,2023-079E,2026-06-09T03:15:48.077568,15.27579627,.00018941,43.0036,310.6172,270.5492,89.5142,0,U,56827,999,16687,.38808388E-4,.806E-5,0
STARLINK-30152,2023-079F,2026-06-09T03:21:21.507264,15.27580372,.00018213,43.0024,310.6556,273.9694,86.0950,0,U,56828,999,16687,.5882192E-4,.1357E-4,0
STARLINK-30128,2023-079K,2026-06-09T01:12:53.767584,15.27574214,.00010495,43.0051,285.2766,285.2873,74.7863,0,U,56832,999,16075,-.61574017E-4,-.1956E-4,0
STARLINK-30131,2023-079L,2026-06-09T01:28:59.287584,15.23910714,.0003525,42.9998,288.9534,298.8776,61.1721,0,U,56833,999,16711,.76350165E-3,.18606E-3,0
STARLINK-30069,2023-079M,2026-06-09T03:16:31.131552,15.27589491,.00016275,43.0031,307.2181,266.6843,93.3823,0,U,56834,999,16691,.22321341E-3,.5887E-4,0
STARLINK-30144,2023-079N,2026-06-09T02:55:07.996512,15.38002802,.00115287,42.9799,303.5893,319.2788,40.7205,0,U,56835,999,16695,.96326367E-3,.36782E-3,0
STARLINK-30142,2023-079P,2026-06-08T21:16:34.162464,15.27566436,.00012444,43.0042,308.7783,256.2761,103.7953,0,U,56836,999,16687,.60120994E-4,.1392E-4,0
STARLINK-30133,2023-079Q,2026-06-09T02:31:24.876192,15.27571396,.00013816,43.0037,310.3846,267.3173,92.7521,0,U,56837,999,16687,.17699116E-4,.225E-5,0
STARLINK-30123,2023-079R,2026-06-08T11:52:43.485600,15.27586052,.00011298,42.9996,241.1214,241.0546,119.0193,0,U,56838,999,16763,.43315584E-4,.93E-5,0
STARLINK-30076,2023-079S,2026-06-09T03:13:57.482112,15.27565551,.00008938,43.0031,310.6015,265.5407,94.5343,0,U,56839,999,16687,.79702604E-4,.1931E-4,0
STARLINK-30073,2023-079T,2026-06-09T06:00:02.999808,15.27569889,.00010186,43.0004,135.2938,256.0351,209.9802,0,U,56840,999,576,.46360395E-3,.12513E-3,0
STARLINK-30078,2023-079U,2026-06-09T00:04:48.203616,15.27576489,.00009664,43.0057,263.6764,290.3744,69.7004,0,U,56841,999,16741,.11166401E-4,.45E-6,0
STARLINK-30135,2023-079V,2026-06-09T03:34:17.838048,15.27574127,.00019544,43.0038,310.6233,268.3220,91.7408,0,U,56842,999,16687,.3154989E-4,.606E-5,0
STARLINK-30137,2023-079W,2026-06-09T02:59:07.849824,15.27582338,.0004063,42.9905,310.4437,263.6463,96.3925,0,U,56843,999,16687,.28796112E-3,.7672E-4,0
STARLINK-30136,2023-079X,2026-06-09T03:19:29.195040,15.27569707,.00014355,42.9992,310.5380,239.3872,120.6838,0,U,56844,999,16687,-.18576783E-4,-.773E-5,0
2023-081A,2023-081A,2026-06-09T05:39:08.440704,15.23189757,.00010791,97.3701,230.4755,119.5385,240.5960,0,U,56846,999,16680,.23037152E-3,.5378E-4,0
2023-081W,2023-081W,2026-06-09T06:25:00.307488,15.24896302,.00115315,97.2900,224.0047,47.5294,312.6916,0,U,56866,999,16682,.26340784E-3,.6494E-4,0
LONGJIANG 3,2023-082A,2026-06-09T06:11:17.659392,15.42112641,.00047493,49.1080,86.0222,5.0044,355.0952,0,U,56874,999,16814,.46492447E-3,.19919E-3,0
STARLINK-6206,2023-083A,2026-06-09T01:43:46.290720,15.27571807,.00011487,43.0025,289.3366,270.5395,89.5325,0,U,56876,999,16560,-.11260294E-4,-.572E-5,0
STARLINK-6209,2023-083B,2026-06-07T15:45:24.496992,15.27580959,.00019978,43.0026,296.7690,267.7868,92.2755,0,U,56877,999,16539,.33664432E-4,.664E-5,0
STARLINK-6182,2023-083C,2026-06-09T01:53:01.840992,15.27564998,.00003584,42.9847,289.3882,36.3303,323.7573,0,U,56878,999,16560,-.42201428E-4,-.1422E-4,0
STARLINK-5707,2023-083D,2026-06-09T01:58:34.940640,15.27565929,.0001913,43.0047,289.4091,269.6378,90.4254,0,U,56879,999,16560,-.8008358E-5,-.483E-5,0
STARLINK-6177,2023-083E,2026-06-08T15:52:56.604864,15.27574130,.00012362,42.9975,291.4155,277.7994,82.2717,0,U,56880,999,16554,-.9359566E-4,-.2836E-4,0
STARLINK-5853,2023-083F,2026-06-09T02:04:07.622112,15.27564223,.00022522,43.0146,289.4364,271.5194,88.5400,0,U,56881,999,16560,-.53858974E-4,-.1744E-4,0
STARLINK-6175,2023-083G,2026-06-09T01:08:36.484800,15.27579662,.00009503,43.0031,289.1492,268.6231,91.4511,0,U,56882,999,16560,.4580265E-4,.999E-5,0
STARLINK-6171,2023-083H,2026-06-08T15:32:33.981792,15.27576231,.00012367,43.0020,291.3085,268.5607,91.5103,0,U,56883,999,16554,.13779052E-4,.117E-5,0
STARLINK-5515,2023-083J,2026-06-07T15:41:42.140544,15.27586411,.00013432,43.0148,296.7530,269.4693,90.6005,0,U,56884,999,16539,.8070232E-4,.1959E-4,0
STARLINK-5095,2023-083K,2026-06-08T15:38:07.256832,15.27566066,.00020359,43.0048,291.3347,214.7516,145.3203,0,U,56885,999,16554,.14496962E-3,.3727E-4,0
STARLINK-5496,2023-083L,2026-06-06T16:14:57.342048,15.27595393,.00010815,43.0021,302.3173,245.3013,114.7726,0,U,56886,999,16524,-.73906586E-4,-.2296E-4,0
STARLINK-6180,2023-083M,2026-06-08T15:37:37.194816,15.27574984,.00016192,43.0026,295.5988,263.4409,96.6259,0,U,56887,999,16549,.27121962E-4,.484E-5,0
STARLINK-6181,2023-083N,2026-06-09T01:39:20.889792,15.27577407,.00012961,42.9993,292.7195,277.6947,82.3758,0,U,56888,999,16556,.29933631E-4,.562E-5,0
STARLINK-6169,2023-083P,2026-06-08T15:23:18.937824,15.27574110,.00017143,43.0027,291.2511,269.0704,90.9951,0,U,56889,999,16553,.529125E-6,-.248E-5,0
STARLINK-5528,2023-083Q,2026-06-09T01:13:26.967648,15.27575931,.00012893,43.0024,292.5823,275.0296,85.0408,0,U,56890,999,16556,.1718465E-4,.211E-5,0
STARLINK-6213,2023-083R,2026-06-08T15:28:52.119552,15.27574866,.00013214,43.0036,291.2850,268.1458,91.9242,0,U,56891,999,16554,.17226688E-4,.212E-5,0
STARLINK-6219,2023-083S,2026-06-09T02:05:15.193824,15.27576905,.00018151,43.0051,292.8491,271.7685,88.2959,0,U,56892,999,16556,.561454E-6,-.247E-5,0
STARLINK-6216,2023-083T,2026-06-08T15:34:24.995424,15.27575748,.00010847,43.0020,291.3149,258.5618,101.5112,0,U,56893,999,16566,.15190933E-4,.156E-5,0
STARLINK-6144,2023-083U,2026-06-09T01:22:41.873376,15.27577687,.00014492,42.9976,292.6343,261.8443,98.2245,0,U,56894,999,16568,.55900187E-4,.1276E-4,0
STARLINK-6208,2023-083V,2026-06-09T01:59:42.412992,15.27574810,.00015467,43.0051,292.8235,276.7428,83.3248,0,U,56895,999,16556,.4472493E-5,-.139E-5,0
STARLINK-6202,2023-083W,2026-06-09T01:54:09.077472,15.27575858,.00012768,43.0035,292.7922,273.6194,86.4511,0,U,56896,999,16567,-.489315E-6,-.276E-5,0
STARLINK-6200,2023-083X,2026-06-09T01:50:26.919744,15.27577112,.00012287,43.0038,292.7761,274.3244,85.7467,0,U,56897,999,16567,.27108617E-4,.484E-5,0
STARLINK-6205,2023-083Y,2026-06-09T01:48:09.933408,15.27577872,.00017234,43.0045,285.9369,266.2327,93.8328,0,U,56898,999,16575,.12012592E-4,.68E-6,0
STARLINK-6203,2023-083Z,2026-06-07T01:38:42.885024,15.27574568,.0001399,43.0031,296.6852,275.1578,84.9114,0,U,56899,999,16544,.47587E-4,.1047E-4,0
STARLINK-6207,2023-083AA,2026-06-09T00:43:40.437696,15.27553543,.00016927,43.0075,275.1820,272.6615,87.4043,0,U,56900,999,16573,-.91670502E-4,-.2782E-4,0
STARLINK-6185,2023-083AB,2026-06-09T01:37:05.012832,15.27569080,.00008946,43.0028,285.8841,275.8171,84.2579,0,U,56901,999,16575,-.23963667E-4,-.921E-5,0
STARLINK-6195,2023-083AC,2026-06-09T00:47:21.685632,15.27562060,.00016953,43.0031,275.1939,272.6479,87.4178,0,U,56902,999,16587,-.463581E-4,-.1537E-4,0
STARLINK-6192,2023-083AD,2026-06-09T00:58:13.051776,15.27573261,.00008384,43.0066,285.6806,239.2221,120.8548,0,U,56903,999,16575,-.36667181E-4,-.1271E-4,0
STARLINK-6193,2023-083AE,2026-06-09T00:17:44.524896,15.27578279,.00010455,43.0017,275.0358,268.5515,91.5216,0,U,56904,999,16576,.29985808E-4,.563E-5,0
STARLINK-6183,2023-083AF,2026-06-09T07:16:42.527136,15.27574765,.00020799,43.0061,272.9322,268.0323,92.0290,0,U,56905,999,16581,-.4860256E-5,-.396E-5,0
STARLINK-6098,2023-083AG,2026-06-08T14:12:05.414112,15.27575122,.00019084,43.0042,277.0426,272.9437,87.1196,0,U,56906,999,16570,.8298611E-5,-.34E-6,0
STARLINK-6110,2023-083AH,2026-06-08T01:33:17.474112,15.27573071,.0001837,43.0051,279.9725,278.8918,81.1726,0,U,56907,999,16573,-.7989009E-5,-.482E-5,0
